{
  "type": "FeatureCollection",
  "features": [
    {
      "type": "Feature",
      "geometry": {
        "type": "Polygon",
        "coordinates": [
          [
            [
              -47.7324,
              -16.1662
            ],
            [
              -47.7353,
              -16.18
            ],
            [
              -47.7421,
              -16.1946
            ],
            [
              -47.7568,
              -16.2101
            ],
            [
              -47.7628,
              -16.2197
            ],
            [
              -47.7735,
              -16.2259
            ],
            [
              -47.776,
              -16.2313
            ],
            [
              -47.786,
              -16.232
            ],
            [
              -47.7821,
              -16.2425
            ],
            [
              -47.7874,
              -16.2444
            ],
            [
              -47.7939,
              -16.2534
            ],
            [
              -47.8109,
              -16.2509
            ],
            [
              -47.8232,
              -16.2419
            ],
            [
              -47.826,
              -16.2362
            ],
            [
              -47.8383,
              -16.2309
            ],
            [
              -47.8418,
              -16.2214
            ],
            [
              -47.8501,
              -16.209
            ],
            [
              -47.8531,
              -16.1975
            ],
            [
              -47.8599,
              -16.1833
            ],
            [
              -47.8571,
              -16.1701
            ],
            [
              -47.8625,
              -16.1581
            ],
            [
              -47.8753,
              -16.1501
            ],
            [
              -47.8898,
              -16.149
            ],
            [
              -47.9034,
              -16.1421
            ],
            [
              -47.9116,
              -16.1344
            ],
            [
              -47.9248,
              -16.1299
            ],
            [
              -47.9398,
              -16.1327
            ],
            [
              -47.9522,
              -16.1247
            ],
            [
              -47.9636,
              -16.1047
            ],
            [
              -47.9685,
              -16.1139
            ],
            [
              -47.9629,
              -16.1228
            ],
            [
              -47.9787,
              -16.1305
            ],
            [
              -47.9944,
              -16.1312
            ],
            [
              -48.0019,
              -16.1369
            ],
            [
              -48.0009,
              -16.1406
            ],
            [
              -48.0085,
              -16.1604
            ],
            [
              -48.0169,
              -16.169
            ],
            [
              -48.0198,
              -16.1842
            ],
            [
              -48.0235,
              -16.1889
            ],
            [
              -48.028,
              -16.2036
            ],
            [
              -48.1406,
              -16.1692
            ],
            [
              -48.1492,
              -16.179
            ],
            [
              -48.1491,
              -16.1865
            ],
            [
              -48.1742,
              -16.2145
            ],
            [
              -48.1768,
              -16.2285
            ],
            [
              -48.1824,
              -16.2431
            ],
            [
              -48.1886,
              -16.2504
            ],
            [
              -48.1913,
              -16.2698
            ],
            [
              -48.1962,
              -16.2859
            ],
            [
              -48.2032,
              -16.2922
            ],
            [
              -48.2018,
              -16.3125
            ],
            [
              -48.2095,
              -16.3141
            ],
            [
              -48.2226,
              -16.3243
            ],
            [
              -48.241,
              -16.3253
            ],
            [
              -48.2466,
              -16.3169
            ],
            [
              -48.2608,
              -16.3146
            ],
            [
              -48.2606,
              -16.3227
            ],
            [
              -48.2686,
              -16.3258
            ],
            [
              -48.2732,
              -16.3182
            ],
            [
              -48.2843,
              -16.3196
            ],
            [
              -48.2977,
              -16.3133
            ],
            [
              -48.3057,
              -16.3222
            ],
            [
              -48.3236,
              -16.3182
            ],
            [
              -48.3271,
              -16.3265
            ],
            [
              -48.3387,
              -16.3172
            ],
            [
              -48.3487,
              -16.3206
            ],
            [
              -48.3558,
              -16.3186
            ],
            [
              -48.367,
              -16.3229
            ],
            [
              -48.3667,
              -16.3135
            ],
            [
              -48.3743,
              -16.3096
            ],
            [
              -48.3867,
              -16.3182
            ],
            [
              -48.3979,
              -16.3223
            ],
            [
              -48.4011,
              -16.3267
            ],
            [
              -48.4028,
              -16.3443
            ],
            [
              -48.3969,
              -16.3578
            ],
            [
              -48.4012,
              -16.3841
            ],
            [
              -48.3815,
              -16.3937
            ],
            [
              -48.3755,
              -16.4007
            ],
            [
              -48.3581,
              -16.4033
            ],
            [
              -48.3582,
              -16.4141
            ],
            [
              -48.35,
              -16.4242
            ],
            [
              -48.3416,
              -16.4441
            ],
            [
              -48.3277,
              -16.4531
            ],
            [
              -48.3093,
              -16.4518
            ],
            [
              -48.301,
              -16.4582
            ],
            [
              -48.3003,
              -16.4642
            ],
            [
              -48.2912,
              -16.469
            ],
            [
              -48.2874,
              -16.4833
            ],
            [
              -48.2699,
              -16.4892
            ],
            [
              -48.2512,
              -16.5349
            ],
            [
              -48.2484,
              -16.5496
            ],
            [
              -48.2407,
              -16.5772
            ],
            [
              -48.2207,
              -16.6105
            ],
            [
              -48.2082,
              -16.6249
            ],
            [
              -48.2025,
              -16.6352
            ],
            [
              -48.1951,
              -16.6425
            ],
            [
              -48.1897,
              -16.6554
            ],
            [
              -48.1943,
              -16.6666
            ],
            [
              -48.1884,
              -16.682
            ],
            [
              -48.1855,
              -16.7069
            ],
            [
              -48.1946,
              -16.7192
            ],
            [
              -48.1978,
              -16.7299
            ],
            [
              -48.1946,
              -16.7338
            ],
            [
              -48.191,
              -16.7384
            ],
            [
              -48.1791,
              -16.7342
            ],
            [
              -48.1713,
              -16.7365
            ],
            [
              -48.1568,
              -16.7353
            ],
            [
              -48.1517,
              -16.7317
            ],
            [
              -48.1457,
              -16.7419
            ],
            [
              -48.14,
              -16.7397
            ],
            [
              -48.1304,
              -16.7441
            ],
            [
              -48.1196,
              -16.743
            ],
            [
              -48.1124,
              -16.7492
            ],
            [
              -48.1053,
              -16.7474
            ],
            [
              -48.1,
              -16.7565
            ],
            [
              -48.1049,
              -16.7653
            ],
            [
              -48.0871,
              -16.7709
            ],
            [
              -48.0882,
              -16.7759
            ],
            [
              -48.0799,
              -16.7855
            ],
            [
              -48.0814,
              -16.7967
            ],
            [
              -48.0738,
              -16.8027
            ],
            [
              -48.0807,
              -16.8129
            ],
            [
              -48.0781,
              -16.8259
            ],
            [
              -48.0811,
              -16.8339
            ],
            [
              -48.0765,
              -16.841
            ],
            [
              -48.0832,
              -16.8545
            ],
            [
              -48.0816,
              -16.8738
            ],
            [
              -48.0776,
              -16.8789
            ],
            [
              -48.0848,
              -16.8842
            ],
            [
              -48.0874,
              -16.8931
            ],
            [
              -48.0779,
              -16.9085
            ],
            [
              -48.0793,
              -16.9203
            ],
            [
              -48.0744,
              -16.9299
            ],
            [
              -48.065,
              -16.9327
            ],
            [
              -48.0519,
              -16.9269
            ],
            [
              -48.0342,
              -16.9224
            ],
            [
              -48.0162,
              -16.9283
            ],
            [
              -48.0065,
              -16.9345
            ],
            [
              -48.0064,
              -16.9439
            ],
            [
              -48.0028,
              -16.9506
            ],
            [
              -47.9268,
              -17.0011
            ],
            [
              -47.9181,
              -17.0039
            ],
            [
              -47.9219,
              -16.9942
            ],
            [
              -47.9216,
              -16.9832
            ],
            [
              -47.9105,
              -16.9743
            ],
            [
              -47.8993,
              -16.9513
            ],
            [
              -47.9054,
              -16.9437
            ],
            [
              -47.9018,
              -16.9368
            ],
            [
              -47.9103,
              -16.9248
            ],
            [
              -47.9027,
              -16.9181
            ],
            [
              -47.8925,
              -16.9181
            ],
            [
              -47.8947,
              -16.9104
            ],
            [
              -47.8859,
              -16.906
            ],
            [
              -47.8963,
              -16.8979
            ],
            [
              -47.8879,
              -16.8941
            ],
            [
              -47.8863,
              -16.8812
            ],
            [
              -47.8939,
              -16.8829
            ],
            [
              -47.8881,
              -16.869
            ],
            [
              -47.8931,
              -16.8614
            ],
            [
              -47.8892,
              -16.8471
            ],
            [
              -47.893,
              -16.8358
            ],
            [
              -47.8984,
              -16.8278
            ],
            [
              -47.8908,
              -16.8235
            ],
            [
              -47.9012,
              -16.8177
            ],
            [
              -47.9025,
              -16.8132
            ],
            [
              -47.8895,
              -16.8042
            ],
            [
              -47.8781,
              -16.7989
            ],
            [
              -47.8866,
              -16.7923
            ],
            [
              -47.88,
              -16.769
            ],
            [
              -47.8879,
              -16.7526
            ],
            [
              -47.8832,
              -16.7442
            ],
            [
              -47.8865,
              -16.7367
            ],
            [
              -47.883,
              -16.7233
            ],
            [
              -47.876,
              -16.7161
            ],
            [
              -47.8803,
              -16.7045
            ],
            [
              -47.8716,
              -16.6963
            ],
            [
              -47.866,
              -16.687
            ],
            [
              -47.8672,
              -16.6801
            ],
            [
              -47.8549,
              -16.6649
            ],
            [
              -47.8459,
              -16.6584
            ],
            [
              -47.8373,
              -16.6469
            ],
            [
              -47.8326,
              -16.6472
            ],
            [
              -47.8195,
              -16.6345
            ],
            [
              -47.8214,
              -16.6152
            ],
            [
              -47.8111,
              -16.611
            ],
            [
              -47.8109,
              -16.6036
            ],
            [
              -47.8044,
              -16.6009
            ],
            [
              -47.809,
              -16.5843
            ],
            [
              -47.8022,
              -16.5776
            ],
            [
              -47.8001,
              -16.5647
            ],
            [
              -47.805,
              -16.5608
            ],
            [
              -47.8,
              -16.5476
            ],
            [
              -47.803,
              -16.5393
            ],
            [
              -47.7894,
              -16.524
            ],
            [
              -47.7781,
              -16.5332
            ],
            [
              -47.7761,
              -16.5381
            ],
            [
              -47.7787,
              -16.5575
            ],
            [
              -47.7757,
              -16.5676
            ],
            [
              -47.7548,
              -16.5557
            ],
            [
              -47.7483,
              -16.5564
            ],
            [
              -47.7373,
              -16.5524
            ],
            [
              -47.72,
              -16.5346
            ],
            [
              -47.717,
              -16.5209
            ],
            [
              -47.7192,
              -16.5128
            ],
            [
              -47.72,
              -16.4879
            ],
            [
              -47.718,
              -16.4705
            ],
            [
              -47.715,
              -16.4638
            ],
            [
              -47.7045,
              -16.457
            ],
            [
              -47.698,
              -16.4476
            ],
            [
              -47.6978,
              -16.4406
            ],
            [
              -47.6872,
              -16.4249
            ],
            [
              -47.6756,
              -16.4199
            ],
            [
              -47.6674,
              -16.4049
            ],
            [
              -47.651,
              -16.3825
            ],
            [
              -47.6479,
              -16.3717
            ],
            [
              -47.6537,
              -16.327
            ],
            [
              -47.6496,
              -16.2978
            ],
            [
              -47.6412,
              -16.2829
            ],
            [
              -47.6468,
              -16.2675
            ],
            [
              -47.651,
              -16.2657
            ],
            [
              -47.6637,
              -16.2471
            ],
            [
              -47.6648,
              -16.24
            ],
            [
              -47.6615,
              -16.226
            ],
            [
              -47.6564,
              -16.2169
            ],
            [
              -47.6597,
              -16.2036
            ],
            [
              -47.6566,
              -16.1934
            ],
            [
              -47.6551,
              -16.1769
            ],
            [
              -47.6584,
              -16.167
            ],
            [
              -47.7324,
              -16.1662
            ]
          ]
        ]
      },
      "properties": {
        "ibge_city_code": "5212501",
        "name": "Luziania",
        "state": "GO",
        "population_estimate_2025": 221262,
        "source": "IBGE API de Malhas",
        "quality": "intermediaria",
        "dataset_status": "official_verified"
      }
    }
  ],
  "name": "luziania_municipality_ibge_official",
  "crs_note": "GeoJSON WGS84 longitude-latitude"
}
